0 FENGYUN 1C DEB
1 31144U 99025BGW 13276.33812043  .00000206  00000-0  16243-3 0  1068
2 31144 099.2351 319.5653 0098724 273.1648 086.6520 14.00794070335052
